JILIN-1 03              
1 41914U 17002B   26191.84385463  .00008683  00000+0  20438-3 0  9993
2 41914  97.1950 198.6032 0008022  90.7513 269.4654 15.42156837525503
CARTOSAT-2D             
1 41948U 17008A   26191.86944262  .00001296  00000+0  64638-4 0  9990
2 41948  97.4099 250.7312 0005670 150.1716 209.9843 15.19261858521172
CARTOSAT-2E             
1 42767U 17036C   26191.82126258  .00002167  00000+0  10611-3 0  9993
2 42767  97.4268 251.2325 0002797 204.7610 155.3490 15.19233582501731
IRIDIUM 113             
1 42803U 17039A   26191.33373856  .00000017  00000+0 -11455-5 0  9993
2 42803  86.3990 312.5038 0002193  91.1544 268.9903 14.34217385474500
NORSAT 2                
1 42828U 17042D   26191.43066667  .00007433  00000+0  32468-3 0  9997
2 42828  97.4049   4.5111 0008584 336.6734  23.4112 15.22372204491272
TECHNOSAT               
1 42829U 17042E   26191.38633588  .00002596  00000+0  18607-3 0  9998
2 42829  97.4303 348.1655 0017861  18.8202 341.3681 15.05092056490191
FLYING LAPTOP           
1 42831U 17042G   26191.84778898  .00002688  00000+0  21263-3 0  9990
2 42831  97.4787 346.4877 0019871  46.2666 314.0200 15.01296106490001
WNISAT 1R               
1 42835U 17042L   26191.74492204  .00000820  00000+0  67183-4 0  9995
2 42835  97.4825 347.0262 0011399  78.7023 281.5482 15.01853313490040
LEMUR-2-GREENBERG       
1 42837U 17042N   26190.49536315  .00011532  00000+0  37497-3 0  9996
2 42837  97.3831  11.0293 0007135 283.6729  76.3718 15.32031511491802
LEMUR-2-FURIAUS         
1 42840U 17042R   26191.74629140  .00012077  00000+0  40490-3 0  9990
2 42840  97.3778  10.1778 0006360 347.2297  12.8782 15.31036825491819
CORVUS BC2              
1 42846U 17042X   26191.31136565  .00002103  00000+0  14633-3 0  9992
2 42846  97.4090 351.7667 0013871  39.1681 321.0548 15.06442373490548
CORVUS BC1              
1 42847U 17042Y   26191.70191670  .00001633  00000+0  11410-3 0  9991
2 42847  97.4119 352.9716 0012081  16.3956 343.7660 15.06607650490630
VRSS-2                  
1 42954U 17060A   26191.83085795  .00000014  00000+0  81989-5 0  9996
2 42954  97.6508 228.4917 0017856  27.4254 332.7898 14.81232040471956
MOHAMMED VI-A           
1 43005U 17070A   26191.85287741  .00000326  00000+0  53293-4 0  9994
2 43005  97.9551 263.8573 0001197  91.4130 268.7218 14.77099572467473
FENGYUN 3D              
1 43010U 17072A   26191.82684877 -.00000019  00000+0  12697-4 0  9993
2 43010  99.0139 166.6774 0001745  23.8215 336.3041 14.19744108448348
NOAA 20 (JPSS-1)        
1 43013U 17073A   26191.82569582  .00000001  00000+0  21576-4 0  9998
2 43013  98.7774 131.0788 0001215 128.8184 231.3101 14.19515914447820
MAKERSAT 0              
1 43016U 17073D   26189.72816002  .00013683  00000+0  36375-3 0  9991
2 43016  97.4597  72.4218 0105066 195.3224 164.4830 15.32839065469765
RADFXSAT (FOX-1B)       
1 43017U 17073E   26191.42349500  .00004588  00000+0  20168-3 0  9993
2 43017  97.4686  58.1651 0148014 248.1091 110.4347 15.13024016468906
JILIN-1 04              
1 43022U 17074A   26191.82559934  .00008667  00000+0  19827-3 0  9990
2 43022  97.4868 302.0798 0005224 111.6529 248.5275 15.43054991477914
JILIN-1 05              
1 43023U 17074B   26191.79922508  .00005208  00000+0  15952-3 0  9991
2 43023  97.4874 298.2797 0006239 136.8612 223.3120 15.34241819477621
JILIN-1 06              
1 43024U 17074C   26191.83954839  .00003605  00000+0  11214-3 0  9995
2 43024  97.4801 295.2988 0007790 147.1366 213.0362 15.33964448477460
IRIDIUM 116             
1 43072U 17083C   26191.72697443  .00000147  00000+0  45420-4 0  9996
2 43072  86.3983 312.1606 0002404  99.2562 260.8905 14.34220153447546
IRIDIUM 130             
1 43073U 17083D   26191.27665859  .00000152  00000+0  47122-4 0  9990
2 43073  86.3991 312.6264 0002164 101.1268 259.0172 14.34216740447420
LKW-2                   
1 43080U 17084A   26191.88942937  .00004210  00000+0  16316-3 0  9990
2 43080  97.1192 230.5794 0003404 126.6651 233.4901 15.26653590475307
SUPERVIEW-1 03          
1 43099U 18002A   26191.88754214  .00012151  00000+0  29376-3 0  9993
2 43099  97.3132 276.7004 0047168  96.1861 264.4762 15.40110591472017
CARTOSAT-2F             
1 43111U 18004A   26191.85386230  .00001225  00000+0  61358-4 0  9993
2 43111  97.4779 251.2559 0002344 144.3538 215.7853 15.19245970470921
LKW-3                   
1 43146U 18006A   26191.84038838  .00012351  00000+0  35799-3 0  9991
2 43146  97.6630 353.3493 0002580 196.3128 163.8032 15.35700636472345
ASNARO-2                
1 43152U 18007A   26191.84797321  .00005647  00000+0  24736-3 0  9997
2 43152  97.3973 198.4051 0001990  93.8597 266.2867 15.22407301471018
